#aV2020  2 17  0  0  0.00000000     288 DD+AD WGS84 FIT  NGA
## 2093  86400.00000000   300.00000000 58896 0.0000000000000
+   32     1  2  3  4  5  6  7  8  9 10 11 12 13 14 15 16 17
+         18 19 20 21 22 23 24 25 26 27 28 29 30 31 32  0  0
+          0  0  0  0  0  0  0  0  0  0  0  0  0  0  0  0  0
+          0  0  0  0  0  0  0  0  0  0  0  0  0  0  0  0  0
+          0  0  0  0  0  0  0  0  0  0  0  0  0  0  0  0  0
++         2  2  2  2  2  2  2  2  2  2  2  2  2  2  2  2  2
++         2  2  2  2  2  2  2  2  2  2  2  2  2  2  2  0  0
++         0  0  0  0  0  0  0  0  0  0  0  0  0  0  0  0  0
++         0  0  0  0  0  0  0  0  0  0  0  0  0  0  0  0  0
++         0  0  0  0  0  0  0  0  0  0  0  0  0  0  0  0  0
%c cc cc ccc ccc cccc cccc cccc cccc ccccc ccccc ccccc ccccc
%c cc cc ccc ccc cccc cccc cccc cccc ccccc ccccc ccccc ccccc
%f  0.0000000  0.000000000  0.00000000000  0.000000000000000
%f  0.0000000  0.000000000  0.00000000000  0.000000000000000
%i    0    0    0    0      0      0      0      0         0
%i    0    0    0    0      0      0      0      0         0
/*      NGA, ST. LOUIS,MO.                                  
/*   EPHEMERIS COMPUTED FROM 2 DAYS OF DATA                 
/*   EPOCHA v5 SMOOTHER                                     
/*   G1762 IERS2010 SATAF SATAPC                            
*  2020  2 17  0 25  0.00000000
P  1  13578.077646  -9782.111928  20332.805430   -297.323177                    
V  1   1297.868667  26313.549696  11993.508895     -0.122190                    
P  2 -13332.914692 -14596.981542 -17137.619261   -406.101883                    
V  2    -58.897495 -23081.270107  18922.149358     -0.069167                    
P  3  23014.934362 -13123.790923    816.255294    -96.263762                    
V  3    470.829324   2940.578081  31891.759137     -0.088888                    
P  4  18376.842409  -4269.359410 -18698.321896    -49.878794                    
V  4  19649.262641  13420.093504  16217.134957     -0.053647                    
P  5 -19490.634428  -2771.802733 -18051.287473     -7.709586                    
V  5  18181.539190 -13531.059836 -17492.348368     -0.005717                    
P  6  -6941.363940 -23703.225298  -9664.042717   -210.217508                    
V  6   1849.942435 -12375.497973  28895.967438     -0.093132                    
P  7   6020.528240 -24017.988765  -8633.603463   -216.113829                    
V  7   3300.418623  11502.166910 -29216.486227     -0.084461                    
P  8  23948.941923   4297.844530  10968.598529    -24.008733                    
V  8  11210.506816   8267.866586 -27547.587202     -0.013196                    
P  9   8863.755056 -12701.354432 -21634.590159   -157.217959                    
V  9  24032.384249  13088.271082   2150.974193     -0.084735                    
P 10  -1406.276921  17191.255658  20211.192003   -247.628008                    
V 10 -22451.776906  12229.605636 -12238.750744     -0.130294                    
P 11  17327.684574    515.367341  19555.153333   -359.114519                    
V 11  10585.962708  24017.791788 -10079.723473      0.107927                    
P 12 -24313.533519   9806.366642   3407.191617    150.463515                    
V 12   3050.254875  -4196.798114  31894.667771     -0.041718                    
P 13 -22877.304099 -12637.112089   4846.928064    -12.309455                    
V 13  -3606.568163  -5721.368561 -31065.656109      0.027448                    
P 14  17077.401715  18666.486588   8718.685958    -31.994838                    
V 14 -10114.174710  -3860.825614  29010.958373      0.024164                    
P 15 -24277.312899  -1617.049669  10780.926108   -251.068944                    
V 15 -11723.373971  -8390.003191 -26510.919503      0.026256                    
P 16  19213.605853   4282.134396 -18252.114179   -125.282007                    
V 16 -19865.079914  10692.050053 -18173.050444     -0.041307                    
P 17  -8616.421941 -18847.575487  17067.646525    217.273496                    
V 17  18210.352865  10091.065832  20809.834902      0.064170                    
P 18  15029.822658   -874.820517  21377.187637      2.961532                    
V 18   2027.039541  28295.352752   -175.330725      0.019382                    
P 19 -15450.152005 -18954.858384  10066.739796   -197.700863                    
V 19  11950.007864   5918.414561  28654.618329      0.051454                    
P 20 -10962.530209  20524.876413  12525.883468    527.867378                    
V 20 -14647.896451   7579.203024 -25273.685719      0.000251                    
P 21  -2557.337777  25541.479552  -6494.769652    -40.060408                    
V 21  -3660.725176  -8972.756061 -29932.681533      0.053756                    
P 22  23467.566128  -8214.776656   9393.177640   -784.672677                    
V 22  -7508.352259   9628.373110  27950.748615     -0.006225                    
P 23  17974.388561  -5698.571430 -18492.634418   -135.835319                    
V 23  20652.771661  12619.396168  15504.141471      0.025968                    
P 24 -14539.106633   7899.997195  20516.699928     -9.176293                    
V 24  -3129.400018 -26495.762888   8272.344891     -0.005594                    
P 25 -18539.792919  17267.120383  -7713.412726    -12.874747                    
V 25  -9551.562026   2637.247409  30012.422845      0.014036                    
P 26  11605.103555  10776.051604 -21370.765143    149.832534                    
V 26 -22586.050508  14970.142374  -4503.214494      0.077224                    
P 27  23585.363067  12586.774300    589.103642   -213.211242                    
V 27   -180.236777   2160.688150 -31909.972850     -0.110251                    
P 28   1392.264105 -16575.636153  21329.961231    738.749857                    
V 28  23341.190356 -10635.413615  -9934.872804     -0.025274                    
P 29 -10418.302304  10636.023967 -22028.869057    -34.840031                    
V 29 -23236.199367 -15294.626203   3593.149721     -0.094043                    
P 30  -1040.707781 -26346.867113   2127.621148   -154.885872                    
V 30   3726.117915  -2619.071090 -31231.767803     -0.089594                    
P 31   8277.359827  21915.812981 -12098.692131    -23.683711                    
V 31  -2909.532373  15454.302915  26536.872872     -0.025207                    
P 32  10324.933144  18558.364857  16104.539846    214.195919                    
V 32 -18701.908193  -8066.226700  21235.311837      0.097998                    
EOF
